IXPE                    
1 49954U 21121A   24215.58334491  .00008017  00000+0  57922-3 0  9992
2 49954   0.2310  48.8547 0008961 252.2328 203.9108 14.98833159  5754
